SL-3 R/B                
1 19046U 88032B   18132.89250345 -.00000454  00000-0 -29247-4 0  9995
2 19046  97.4836 174.4207 0035288 295.4708  64.2868 15.02422089621854
SL-16 R/B               
1 19120U 88039B   18133.10050381 -.00000179  00000-0 -62409-4 0  9999
2 19120  71.0153 347.8280 0020558  37.7714 322.4849 14.19183235553195
COSMOS 1953             
1 19210U 88050A   18132.91047726  .00000956  00000-0  64345-4 0  9991
2 19210  82.5180  73.6300 0012229 210.7789 149.2722 15.05555263606318
SL-8 R/B                
1 19257U 88053B   18132.91240896  .00000098  00000-0  41344-4 0  9999
2 19257  74.0485 330.3554 0019898 141.4917 321.7151 14.37399458565862
COSMOS 1975             
1 19573U 88093A   18132.79564198  .00000445  00000-0  29732-4 0  9997
2 19573  82.5229  26.5178 0012924 254.8249 105.1548 15.04465385588226
SL-14 R/B               
1 19574U 88093B   18132.76853935  .00000087  00000-0  76507-5 0  9990
2 19574  82.5335 196.9214 0023154 108.8082  30.5759 14.83263149577210
SL-16 R/B               
1 19650U 88102B   18132.89400117 -.00000259  00000-0 -10769-3 0  9999
2 19650  71.0016  41.8087 0012917  33.0513 327.1414 14.15771350522387
INTERCOSMOS 24          
1 20261U 89080A   18133.14330508  .00000161  00000-0  39271-4 0  9990
2 20261  82.5959 156.2462 1204556  55.8543 315.0956 12.55986638307383
SL-14 R/B               
1 20262U 89080C   18132.76308402  .00000083  00000-0  22970-4 0  9997
2 20262  82.5965 204.9973 1236231 225.1467 124.2519 12.48892776302854
DELTA 1 R/B             
1 20323U 89089B   18132.68767993  .00000016  00000-0  13175-4 0  9992
2 20323  97.1172  31.8967 0073049 123.7144 237.1043 14.48254845502415
DELTA 2 R/B(1)          
1 20453U 90008B   18132.26100278  .00002200  00000-0  12721-3 0  9992
2 20453  35.6244  95.4218 0285335  27.2316 334.3048 14.84162229497101
COSMOS 2058             
1 20465U 90010A   18132.94752601  .00000251  00000-0  19078-4 0  9993
2 20465  82.4876 290.7437 0013990 263.3599  96.6032 14.97715136513587
SL-14 R/B               
1 20466U 90010B   18132.88158021  .00000073  00000-0  63086-5 0  9994
2 20466  82.5050  64.1169 0019988 339.9351  20.1074 14.81322864526304
SL-14 R/B               
1 20511U 90018B   18133.20055639  .00000075  00000-0  67617-5 0  9997
2 20511  82.5244   6.7862 0018968 109.2600  35.5322 14.79980154520875
HST                     
1 20580U 90037B   18133.00952660  .00000543  00000-0  22293-4 0  9992
2 20580  28.4705 347.6507 0002838 120.7942  26.9001 15.09034921340156
SL-16 R/B               
1 20625U 90046B   18132.65187389  .00000230  00000-0  14449-3 0  9996
2 20625  70.9986 177.6522 0015606 320.1972  39.8005 14.14632723444424
COSMOS 2084             
1 20663U 90055A   18133.17431063  .00000067  00000-0  23825-4 0  9994
2 20663  62.7923 206.5502 0125840 122.6213 238.7100 14.91828005509031
SL-6 R/B(2)             
1 20666U 90055D   18132.96294503 -.00000027  00000-0  15915-4 0  9997
2 20666  62.7836 125.2827 0100868 143.1590 217.6492 14.92124302510912
SL-8 R/B                
1 20775U 90078B   18133.04423015  .00003120  00000-0  15170-3 0  9993
2 20775  82.9254 137.5099 0584090  45.0975 319.6109 14.32059844395953
SL-8 R/B                
1 21088U 91006B   18133.52246203  .00000065  00000-0  49952-4 0  9999
2 21088  82.9395 134.6743 0023907 113.9471 357.6324 13.77083530371066
OKEAN-3                 
1 21397U 91039A   18132.69190109  .00000234  00000-0  20202-4 0  9993
2 21397  82.5225 185.3793 0017072 210.6390 149.3835 14.92661640437873
COSMOS 2151             
1 21422U 91042A   18133.52253565  .00000168  00000-0  14049-4 0  9993
2 21422  82.4985 292.0615 0012676 271.5112  88.4655 14.91949159457751
SL-14 R/B               
1 21423U 91042B   18132.78721626  .00000074  00000-0  67429-5 0  9996
2 21423  82.4958  13.4088 0016157 249.1668 110.7814 14.79731686430281
ERS-1                   
1 21574U 91050A   18132.88892603  .00000057  00000-0  33265-4 0  9998
2 21574  98.5017  80.5498 0034072  52.1650 308.2612 14.37646082404977
ARIANE 40 R/B           
1 21610U 91050F   18132.84428637  .00000035  00000-0  24740-4 0  9991
2 21610  98.5578 195.5871 0004025  53.4520  77.6094 14.40836240407589
INTERCOSMOS 25          
1 21819U 91086A   18132.91311970  .00000113  00000-0  14692-4 0  9992
2 21819  82.5943 225.1376 1518471 105.2294 272.1267 12.04893564151961
SL-14 R/B               
1 21820U 91086B   18133.50103380  .00000023  00000-0  45208-5 0  9992
2 21820  82.5599 283.6154 1575975 304.9361  41.3350 11.93378421146182
SL-8 R/B                
1 21876U 92008B   18133.41092431  .00000032  00000-0  16930-4 0  9991
2 21876  82.9289 231.7644 0034704 190.1092 238.7288 13.75620123316784
SL-8 R/B                
1 21938U 92020B   18132.92630027 -.00000059  00000-0 -77447-4 0  9999
2 21938  82.9275 115.6689 0029147 355.1338  62.5968 13.75261608308315
SL-16 R/B               
1 22220U 92076B   18133.34951781  .00000215  00000-0  13203-3 0  9996
2 22220  70.9999  84.2622 0011306 137.2989 334.9928 14.16430593317529
SL-16 R/B               
1 22285U 92093B   18132.79965744 -.00000292  00000-0 -12596-3 0  9999
2 22285  71.0226 240.8291 0005437 319.8821  40.1900 14.15023062309163
COSMOS 2228             
1 22286U 92094A   18133.19678363  .00000200  00000-0  18999-4 0  9995
2 22286  82.5222  62.8582 0022764 104.5811 255.7934 14.87933439371563
SL-16 R/B               
1 22566U 93016B   18131.30149589  .00000709  00000-0  39092-3 0  9995
2 22566  71.0092  98.1850 0010072 344.8056  15.2973 14.14954103297695
COSMOS 2242             
1 22626U 93024A   18132.96794957  .00000218  00000-0  21049-4 0  9998
2 22626  82.5215  90.8907 0020574 104.7856 255.5643 14.87798010355182
SL-16 R/B               
1 22803U 93059B   18132.87345705 -.00000028  00000-0  10113-4 0  9996
2 22803  70.9900 274.7034 0019269 246.3098 113.6004 14.16789995274724
ARIANE 40 R/B           
1 22830U 93061H   18132.92269003 -.00000014  00000-0  12061-4 0  9990
2 22830  98.8603 160.4887 0011714  49.6521 310.5682 14.31415190285162
COSMOS 2278             
1 23087U 94023A   18133.13239161 -.00000294  00000-0 -13075-3 0  9996
2 23087  71.0546  29.3735 0006645  65.4516 294.7298 14.13763357241134
SL-16 R/B               
1 23088U 94023B   18132.92022980 -.00000261  00000-0 -11100-3 0  9993
2 23088  70.9997 309.9914 0005288 299.3584  60.7010 14.14668106241909
SL-16 R/B               
1 23343U 94074B   18132.72641177 -.00000004  00000-0  69856-5 0  9993
2 23343  98.1081 177.2535 0008291  95.3171  18.3260 14.76730446265252
SL-16 R/B               
1 23405U 94077B   18132.72840278 -.00000301  00000-0 -13022-3 0  9991
2 23405  70.9838 242.5351 0003620 222.9394 137.1446 14.15201433211885
ERS-2                   
1 23560U 95021A   18132.71011257  .00001364  00000-0  64136-4 0  9990
2 23560  98.5395 174.5496 0002201 261.6238  98.4745 15.21707093225489
ARIANE 40+ R/B          
1 23561U 95021B   18132.97286389  .00000048  00000-0  31307-4 0  9991
2 23561  98.7931 146.8384 0007098  13.9674  15.7805 14.37870903208428
SL-16 R/B               
1 23705U 95058B   18132.92380389 -.00000274  00000-0 -11686-3 0  9991
2 23705  71.0217  57.2220 0011880 165.8988 194.2469 14.15111162163534
SL-16 R/B               
1 24298U 96051B   18132.95266308 -.00000235  00000-0 -10090-3 0  9995
2 24298  70.8370  87.0445 0013716  46.5120 313.7138 14.12441307118122
ORBVIEW 2 (SEASTAR)     
1 24883U 97037A   18132.86749217  .00000024  00000-0  24475-4 0  9992
2 24883  98.5575 242.4893 0002140 180.7895 179.3286 14.33451192 99145
SL-16 R/B               
1 25400U 98043G   18132.84827331 -.00000035  00000-0  33633-5 0  9998
2 25400  98.5308  76.2745 0010910  55.8472 304.3741 14.25428251 31807
SL-16 R/B               
1 25407U 98045B   18132.89381912 -.00000283  00000-0 -11968-3 0  9993
2 25407  71.0126  68.5563 0005781  53.7217 306.4440 14.15775539 22581
ISS (ZARYA)             
1 25544U 98067A   18132.86061566  .00025713  00000-0  39219-3 0  9998
2 25544  51.6404 194.8124 0003863  60.5700  91.3717 15.54278325113026
SL-8 R/B                
1 25723U 99022C   18132.68844651  .00007977  00000-0  10508-3 0  9995
2 25723  48.4150 203.7248 0008151 195.2174 164.8529 15.59286633 57839
CZ-4B R/B               
1 25732U 99025C   18133.13510251 -.00000005  00000-0  20166-4 0  9993
2 25732  98.9943 143.9676 0036552 231.4447 178.6768 14.17648782983387
OKEAN-O                 
1 25860U 99039A   18132.96845275  .00000032  00000-0  12283-4 0  9997
2 25860  98.2152 127.9518 0001628 108.1638 251.9749 14.76546185 12408
SL-16 R/B               
1 25861U 99039B   18132.97449653  .00000050  00000-0  14333-4 0  9997
2 25861  98.1495 112.3780 0017046  99.7911 325.6416 14.78476848 14364
TERRA                   
1 25994U 99068A   18133.23140237  .00000045  00000-0  20081-4 0  9993
2 25994  98.2071 208.6057 0001249 104.1932 255.9418 14.57100207978737
ENVISAT                 
1 27386U 02009A   18133.16154596  .00000001  00000-0  13798-4 0  9993
2 27386  98.1875 168.8667 0001335  88.7129 312.2421 14.37921630848499
IDEFIX & ARIANE 42P R/B 
1 27422U 02021B   18132.96099936 -.00000007  00000-0  13427-4 0  9997
2 27422  98.2545 120.3789 0011960 345.4916  14.5922 14.29261626835672
AQUA                    
1 27424U 02022A   18132.92067880  .00000104  00000-0  33069-4 0  9990
2 27424  98.2005  74.6600 0002074 134.8841 296.7334 14.57119279852241
CZ-4B R/B               
1 27432U 02024C   18132.97454566 -.00000013  00000-0  16871-4 0  9999
2 27432  99.0315 114.1894 0050451 178.8111 247.9053 14.14063764825323
MIDORI II (ADEOS-II)    
1 27597U 02056A   18132.87970589  .00000043  00000-0  34686-4 0  9999
2 27597  98.4181  94.2902 0002246  83.0094 277.1343 14.27348211802456
H-2A R/B                
1 27601U 02056E   18133.17504032  .00000036  00000-0  28201-4 0  9993
2 27601  98.3305 193.7970 0072847  37.2951  21.7969 14.31837759805035
